zip,city,lng,lat
1000,Bruxelles,4.351697,50.8465573
1020,Laeken,4.3487134,50.883392
1030,Schaerbeek,4.3737121,50.8676041
1040,Etterbeek,4.3895104,50.8368511
1050,Ixelles,4.3815707,50.8222854
1060,Saint-Gilles,4.345668,50.8267409
1070,Anderlecht,4.3123401,50.8381411
1080,Molenbeek-Saint-Jean,4.3227779,50.8543551
1081,Koekelberg,4.3257084,50.8622633
1082,Berchem-Sainte-Agathe,4.292702,50.8639835
1083,Ganshoren,4.3175103,50.8712396
1090,Jette,4.3260903,50.8777634
1120,Neder-Over-Heembeek,4.390488868,50.89779605
1130,Haren,4.412570873,50.8919661
1140,Evere,4.4021602,50.8704524
1150,Woluwe-Saint-Pierre,4.4432967,50.8292429
1160,Auderghem,4.4331389,50.8156571
1170,Watermael-Boitsfort,4.4158177,50.799394
1180,Uccle,4.3372348,50.8018201
1190,Forest,4.3177512,50.8091426
1200,Woluwe-Saint-Lambert,4.4284842,50.8466928
1210,Saint-Josse-Ten-Noode,4.3723364,50.8530739
1300,Limal,4.5738899,50.6930127
1301,Bierges,4.5894025,50.7111796
1310,La Hulpe,4.4796542,50.7315053
1315,Glimes,4.8384018,50.6799948
1320,Beauvechain,4.7716774,50.7810287
1325,Bonlez,4.6896145,50.7021372
1330,Rixensart,4.527289689,50.7133548
1331,Rosières,4.546311302,50.73713045
1332,Genval,4.497138934,50.72074495
1340,Ottignies,4.5690502,50.666357
1341,Céroux-Mousty,4.529174266,50.6625713
1342,Limelette,4.554902276,50.6851551
1348,Louvain-La-Neuve,4.614156732,50.6741689
1350,Enines,4.9260633,50.6943193
1357,Hélécine,4.9822395,50.7514034
1360,Malèves-Sainte-Marie-Wastines,4.7801225,50.6564717
1367,Autre-Eglise,4.9249295,50.6631583
1370,Dongelberg,4.8203333,50.7016251
1380,Couture-Saint-Germain,4.482569151,50.6628104
1390,Archennes,4.6702286,50.7516077
1400,Monstreux,4.286021634,50.5931607
1401,Baulers,4.358648257,50.6172472
1402,Thines,4.382595409,50.58678735
1404,Bornival,4.264926221,50.6048658
1410,Waterloo,4.3978047,50.7173563
1420,Braine-L'alleud,4.354814544,50.6940942
1421,Ophain-Bois-Seigneur-Isaac,4.350790235,50.65630215
1428,Lillois-Witterzée,4.3670582,50.6483743
1430,Bierghes,4.122725798,50.69657845
1435,Corbais,4.640828606,50.6491686
1440,Braine-Le-Château,4.266669073,50.68088165
1450,Chastre,4.636678,50.6080835
1457,Nil-Saint-Vincent-Saint-Martin,4.6743285,50.6407147
1460,Ittre,4.261167564,50.6463367
1461,Haut-Ittre,4.296471951,50.6488039
1470,Baisy-Thy,4.488077819,50.6040225
1471,Loupoigne,4.431964496,50.5929226
1472,Vieux-Genappe,4.401503098,50.62902485
1473,Glabais,4.446488694,50.63691535
1474,Ways,4.472942947,50.6269861
1476,Houtain-Le-Val,4.411033952,50.5762935
1480,Clabecq,4.2214131,50.6893737
1490,Court-Saint-Etienne,4.5685766,50.6443208
1495,Marbais,4.538097597,50.55047955
1500,Halle,4.2374349,50.7360524
1501,Buizingen,4.260508082,50.73793415
1502,Lembeek,4.214343059,50.7092954
1540,Herfelingen,4.0974868,50.747729
1541,Sint-Pieters-Kapelle,3.998576672,50.70721955
1547,Biévène,3.943147,50.7164481
1560,Hoeilaart,4.474407,50.7674846
1570,Galmaarden,3.9709983,50.7527192
1600,Oudenaken,4.1958992,50.7804875
1601,Ruisbroek,4.29861047,50.7848617
1602,Vlezenbeek,4.236041072,50.805593
1620,Drogenbos,4.3173542,50.786532
1630,Linkebeek,4.3345641,50.7716092
1640,Rhode-Saint-Genèse,4.3463687,50.74503
1650,Beersel,4.305132149,50.7684432
1651,Lot,4.272998622,50.76514035
1652,Alsemberg,4.328170341,50.7449476
1653,Dworp,4.295015283,50.73423975
1654,Huizingen,4.273254597,50.74931535
1670,Bogaarden,4.1367803,50.7398062
1671,Elingen,4.174198072,50.7793527
1673,Beert,4.185344936,50.7354888
1674,Bellingen,4.160145028,50.73779765
1700,Dilbeek,4.265729967,50.84408625
1701,Itterbeek,4.2501187,50.8395994
1702,Groot-Bijgaarden,4.263566837,50.8714357
1703,Schepdaal,4.195149073,50.8363077
1730,Asse,4.180437507,50.913594
1731,Relegem,4.279026593,50.9019808
1740,Ternat,4.18341714,50.87155835
1741,Wambeek,4.164637248,50.85672975
1742,Sint-Katherina-Lombeek,4.1535568,50.8726659
1745,Mazenzele,4.1717632,50.9428791
1750,Gaasbeek,4.1888025,50.7998923
1755,Gooik,4.102984067,50.7979738
1760,Onze-Lieve-Vrouw-Lombeek,4.1119573,50.8220387
1761,Borchtlombeek,4.136914865,50.84817805
1770,Liedekerke,4.0860754,50.8711313
1780,Wemmel,4.3108723,50.9145955
1785,Brussegem,4.2658869,50.9277713
1790,Affligem,4.1174675,50.9035063
1800,Peutie,4.4551981,50.9271744
1820,Melsbroek,4.4758811,50.9170725
1830,Machelen,4.4353614,50.9124219
1831,Diegem,4.4365042,50.8945555
1840,Londerzeel,4.299072942,51.0122466
1850,Grimbergen,4.401373263,50.95030565
1851,Humbeek,4.377759928,50.9728229
1852,Beigem,4.3638682,50.9527061
1853,Strombeek-Bever,4.342355502,50.91096285
1860,Meise,4.3287322,50.9341625
1861,Wolvertem,4.3085198,50.9510266
1880,Kapelle-Op-Den-Bos,4.3599725,51.0131904
1910,Berg,5.1521172,51.1695659
1930,Nossegem,4.508102595,50.88499735
1932,Sint-Stevens-Woluwe,4.435993971,50.8662434
1933,Sterrebeek,4.515743844,50.85395875
1950,Kraainem,4.4691371,50.8606105
1970,Wezembeek-Oppem,4.4871796,50.8440554
1980,Eppegem,4.4556575,50.961429
1981,Hofstade,4.504252661,50.9939033
1982,Elewijt,4.507563892,50.96953845
2000,Antwerpen,4.3997081,51.2211097
2018,Antwerpen,4.3997081,51.2211097
2020,Antwerpen,4.3997081,51.2211097
2030,Antwerpen,4.3997081,51.2211097
2040,Antwerpen,4.3997081,51.2211097
2050,Antwerpen,4.3997081,51.2211097
2060,Antwerpen,4.3997081,51.2211097
2070,Burcht,4.3416362,51.2028046
2100,Deurne,4.469525409,51.2115284
2110,Wijnegem,4.5225318,51.2270761
2140,Borgerhout,4.440389506,51.21029905
2150,Borsbeek,4.488953,51.1928907
2160,Wommelgem,4.5238022,51.2031044
2170,Merksem,4.445340164,51.24994295
2180,Ekeren,4.432287078,51.2842045
2200,Herentals,4.83464461,51.1855514
2220,Hallaar,4.719112072,51.08755725
2221,Booischot,4.7692868,51.0471677
2222,Itegem,4.731894345,51.10403005
2223,Schriek,4.4361161,51.2907379
2230,Herselt,4.901808003,51.0554081
2235,Houtvenne,4.801293265,51.04605145
2240,Massenhoven,4.635692468,51.19902125
2242,Pulderbos,4.70338521,51.2257319
2243,Pulle,4.697544528,51.2011609
2250,Olen,4.8597257,51.1438611
2260,Oevel,4.9053101,51.1377568
2270,Herenthout,4.7543972,51.1392427
2275,Gierle,4.8676797,51.26758
2280,Grobbendonk,4.73188443,51.18870335
2288,Bouwel,4.737061439,51.16210045
2290,Vorselaar,4.769482,51.2023448
2300,Turnhout,4.948461,51.3233812
2310,Rijkevorsel,4.760708,51.3495046
2320,Hoogstraten,4.744065641,51.39574085
2321,Meer,4.737254858,51.46092495
2322,Minderhout,4.807079049,51.43155825
2323,Wortel,4.808593088,51.3975366
2328,Meerle,4.8051679,51.4743516
2330,Merksplas,4.8627541,51.3580597
2340,Beerse,4.837570452,51.3134921
2350,Vosselaar,4.8878026,51.3129153
2360,Oud-Turnhout,4.9817086,51.3178319
2370,Arendonk,5.0864557,51.3202315
2380,Ravels,5.019812292,51.3808625
2381,Weelde,5.018244542,51.41206885
2382,Poppel,5.048806967,51.45063155
2387,Baarle-Hertog,4.900405171,51.41275043
2390,Malle,4.7149828,51.3001124
2400,Mol,5.1155267,51.1840421
2430,Eindhout,4.997289028,51.10171295
2431,Varendonk,4.9552253,51.0801317
2440,Geel,4.9903187,51.1610826
2450,Meerhout,5.0772388,51.1317433
2460,Kasterlee,4.967812,51.2407915
2470,Retie,5.0843883,51.2675862
2480,Dessel,5.113243,51.2395713
2490,Balen,5.193773076,51.171804
2491,Olmen,5.164821446,51.13368515
2500,Koningshooikt,4.603382811,51.0929433
2520,Broechem,4.5967162,51.1813951
2530,Boechout,4.510406865,51.1596941
2531,Vremde,4.5226229,51.1753099
2540,Hove,4.477387,51.1486117
2547,Lint,4.4922187,51.1268305
2550,Kontich,4.4456359,51.134377
2560,Bevel,4.692287577,51.1364316
2570,Duffel,4.5061988,51.0957176
2580,Beerzel,4.663080741,51.06299735
2590,Berlaar,4.664038763,51.10303735
2600,Berchem,4.431702639,51.1918493
2610,Wilrijk,4.387630961,51.1638451
2620,Hemiksem,4.3420555,51.1442105
2627,Schelle,4.3361875,51.1245635
2630,Aartselaar,4.3870241,51.133297
2640,Mortsel,4.4593335,51.1741789
2650,Edegem,4.4384284,51.1574786
2660,Hoboken,4.351150217,51.1757824
2800,Mechelen,4.4713212,51.02803335
2801,Heffen,4.412476256,51.0519355
2811,Hombeek,4.421191052,51.01166405
2812,Muizen,4.518299973,51.0083206
2820,Bonheiden,4.537821778,51.0261294
2830,Blaasveld,4.3723517,51.0565194
2840,Reet,4.405889959,51.1044854
2845,Niel,4.3303396,51.1098649
2850,Boom,4.3667216,51.0873789
2860,Sint-Katelijne-Waver,4.511427814,51.06232435
2861,Onze-Lieve-Vrouw-Waver,4.5799614,51.0624913
2870,Breendonk,4.313610863,51.0452687
2880,Bornem,4.242326005,51.0924649
2890,Lippelo,4.251921393,51.0451478
2900,Schoten,4.4980446,51.2516344
2910,Essen,4.4701309,51.4677957
2920,Kalmthout,4.4763255,51.3832723
2930,Brasschaat,4.489307,51.2930933
2940,Hoevenen,4.4046996,51.3066168
2950,Kapellen,4.431231831,51.332759
2960,Brecht,4.597238179,51.3347679
2970,'s Gravenwezel,4.5556038,51.2624856
2980,Halle,4.645556534,51.2428446
2990,Loenhout,4.6428328,51.3994474
3000,Leuven,4.692990322,50.8812533
3001,Heverlee,4.693130751,50.85172925
3010,Kessel Lo,4.730761495,50.88991545
3012,Wilsele,4.7136294,50.9095362
3018,Wijgmaal,4.7001214,50.926428
3020,Herent,4.672714,50.9079329
3040,Huldenberg,4.58285874,50.7950895
3050,Oud-Heverlee,4.6678971,50.8217682
3051,Sint-Joris-Weert,4.645828979,50.8051035
3052,Blanden,4.705679661,50.8281673
3053,Haasrode,4.728370694,50.81785645
3054,Vaalbeek,4.685271359,50.82408165
3060,Bertem,4.6322907,50.8706469
3061,Leefdaal,4.590504365,50.8419887
3070,Kortenberg,4.536470704,50.88326665
3071,Erps-Kwerps,4.575086413,50.9104969
3078,Everberg,4.554594959,50.87266065
3080,Duisburg,4.545208432,50.8110528
3090,Overijse,4.5385226,50.7729254
3110,Rotselaar,4.714320596,50.9543637
3111,Wezemaal,4.768330689,50.9482552
3118,Werchter,4.702687723,50.9707189
3120,Tremelo,4.6755134,50.9900457
3128,Baal,4.750536766,51.0075269
3130,Begijnendijk,4.782640312,51.02422075
3140,Keerbergen,4.6265551,51.0049242
3150,Haacht,4.6386824,50.9769286
3190,Boortmeerbeek,4.575800525,50.97828585
3191,Hever,4.5553278,50.9925865
3200,Aarschot,4.8245687,50.9841594
3201,Langdorp,4.885698962,51.0118664
3202,Rillaar,4.897049427,50.97591095
3210,Linden,4.775684751,50.89891075
3211,Binkom,4.890888586,50.8721422
3212,Pellenberg,4.789408665,50.87211325
3220,Holsbeek,4.755729672,50.92172015
3221,Nieuwrode,4.833804539,50.9470265
3270,Scherpenheuvel,4.954732777,50.9725745
3271,Averbode,4.977084579,51.0278406
3272,Messelbroek,4.924667682,50.98948425
3290,Deurne,5.0964572,51.0392379
3293,Kaggevinne,5.029940493,50.9776976
3294,Molenstede,5.024746529,51.0071839
3300,Bost,4.933923959,50.7846322
3320,Hoegaarden,4.881141936,50.7877912
3321,Outgaarden,4.9193571,50.7665968
3350,Drieslinter,5.053345558,50.84486375
3360,Bierbeek,4.771431808,50.8241245
3370,Boutersem,4.833617805,50.8473461
3380,Bunsbeek,4.960110793,50.8510351
3381,Kapellen,4.960877619,50.88734525
3384,Attenrode,4.916755414,50.8694607
3390,Houwaart,4.860599744,50.93414405
3391,Meensel-Kiezegem,4.917343133,50.8950541
3400,Eliksem,5.007492232,50.78710135
3401,Waasmont,5.060942049,50.72608345
3404,Attenhoven,5.100653433,50.7653693
3440,Budingen,5.087123767,50.8653457
3450,Geetbets,5.101581003,50.89519195
3454,Rummen,5.156491748,50.88594765
3460,Assent,5.013668844,50.94677135
3461,Molenbeek-Wersbeek,4.9541212,50.9212106
3470,Kortenaken,5.068392496,50.90566935
3471,Hoeleden,5.001462802,50.8668096
3472,Kersbeek-Miskom,5.006511605,50.89309326
3473,Waanrode,5.003771633,50.9129375
3500,Hasselt,5.336838397,50.930358
3501,Wimmertingen,5.35129064,50.8769276
3510,Kermt,5.250978464,50.9524495
3511,Kuringen,5.3052007,50.9439384
3512,Stevoort,5.244429194,50.91698375
3520,Zonhoven,5.3677683,50.9909835
3530,Helchteren,5.384482165,51.0743268
3540,Berbroek,5.209857666,50.94876395
3545,Halen,5.107391344,50.9384339
3550,Heusden,5.283553129,51.04153335
3560,Linkhout,5.1372552,50.9657859
3570,Alken,5.3079873,50.8754731
3580,Beringen,5.220809082,51.0502026
3581,Beverlo,5.244356551,51.08973005
3582,Koersel,5.271159655,51.06978945
3583,Paal,5.161672557,51.04746375
3590,Diepenbeek,5.4200307,50.9078485
3600,Genk,5.5001456,50.9654864
3620,Gellik,5.6091315,50.8839456
3621,Rekem,5.662609476,50.9284078
3630,Eisden,5.7128515,50.9863045
3631,Boorsem,5.7147232,50.9408858
3640,Kessenich,5.808924333,51.1492029
3650,Dilsen,5.699144386,51.0328615
3660,Opglabbeek,5.581962,51.0429949
3665,As,5.572202585,51.0005396
3668,Niel-Bij-As,5.616166004,51.0182495
3670,Ellikom,5.528946361,51.1303479
3680,Maaseik,5.791733,51.0947181
3690,Zutendaal,5.5725548,50.9318992
3700,'s Herenelderen,5.5030479,50.8064756
3717,Herstappe,5.4260923,50.7273829
3720,Kortessem,5.377000029,50.86195255
3721,Vliermaalroot,5.429857466,50.8667966
3722,Wintershoven,5.407345632,50.85566395
3723,Guigoven,5.400563228,50.84255235
3724,Vliermaal,5.425909174,50.8326029
3730,Hoeselt,5.4865309,50.8500788
3732,Schalkhoven,5.448166928,50.8422859
3740,Beverst,5.4734935,50.8921566
3742,Martenslinde,5.534048641,50.8523326
3746,Hoelbeek,5.556142701,50.883259
3770,Genoelselderen,5.5369013,50.8017668
3790,Fouron-Saint-Martin,5.842934228,50.74087835
3791,Remersdaal,5.881877603,50.72838165
3792,Fouron-Saint-Pierre,5.824242712,50.72830265
3793,Teuven,5.869530469,50.75322225
3798,Fouron-Le-Comte,5.77194619,50.7611375
3800,Aalst,5.2127604,50.7813901
3803,Duras,5.146158129,50.83411245
3806,Velm,5.132211277,50.78000075
3830,Berlingen,5.311174893,50.82338225
3831,Herten,5.332235963,50.82704785
3832,Ulbeek,5.293672501,50.84319895
3840,Bommershoven,5.382353155,50.78522885
3850,Binderveld,5.168447929,50.86548295
3870,Batsheers,5.2807989,50.7381794
3890,Boekhout,5.231432693,50.7456072
3891,Borlo,5.174378573,50.7345174
3900,Overpelt,5.422976,51.2113458
3910,Neerpelt,5.4314419,51.2289746
3920,Lommel,5.3076895,51.2305657
3930,Achel,5.479289572,51.2684314
3940,Hechtel,5.341564378,51.11664635
3941,Eksel,5.344043927,51.1567865
3945,Ham,5.178110974,51.11417145
3950,Bocholt,5.599558195,51.1924818
3960,Beek,5.637817805,51.16613895
3970,Leopoldsburg,5.263892429,51.1220584
3971,Heppen,5.226535596,51.11582725
3980,Tessenderlo,5.0893974,51.0681628
3990,Grote-Brogel,5.508709838,51.1420032
4000,Glain,5.541864,50.648205
4020,Bressoux,5.6111443,50.6412964
4030,Grivegnee,5.599573,50.621845
4031,Angleur,5.5954054,50.6128164
4032,Chênee,5.619261,50.6111024
4040,Herstal,5.6403906,50.6701887
4041,Milmort,5.5929155,50.6904632
4042,Liers,5.563754,50.6933806
4050,Chaudfontaine,5.6469688,50.5847922
4051,Vaux-Sous-Chèvremont,5.6335963,50.6018717
4052,Beaufays,5.6387759,50.5589633
4053,Embourg,5.619201,50.5893639
4100,Boncelles,5.5355698,50.5742979
4101,Jemeppe-Sur-Meuse,5.5049541,50.6168289
4102,Ougrée,5.5389943,50.5992632
4120,Ehein,5.4444346,50.5445135
4121,Neuville-En-Condroz,5.4514318,50.5520337
4122,Plainevaux,5.5215011,50.5446771
4130,Esneux,5.575772744,50.5337249
4140,Dolembreux,5.628000939,50.53758625
4141,Louveigné,5.7172478,50.5248417
4160,Anthisnes,5.5225261,50.481662
4161,Villers-Aux-Tours,5.5122974,50.4969412
4162,Hody,5.5009881,50.4869156
4163,Tavier,5.4707571,50.4960227
4170,Comblain-Au-Pont,5.576470727,50.47491074
4171,Poulseur,5.5827847,50.5097627
4180,Comblain-Fairon,5.5428656,50.4454473
4181,Filot,5.5680501,50.426751
4190,Ferrières,5.605138,50.3999541
4210,Burdinne,5.072436,50.5812607
4217,Héron,5.0971783,50.5508203
4218,Couthuin,5.1318708,50.5331675
4219,Acosse,5.0485902,50.5945676
4250,Boëlhe,5.1679183,50.6841901
4252,Omal,5.1969427,50.6554534
4253,Darion,5.187047,50.6649171
4254,Ligney,5.182381,50.66174
4257,Berloz,5.2146261,50.6977331
4260,Avennes,5.1159746,50.6287517
4261,Latinne,5.1632447,50.6242037
4263,Tourinne,5.1765528,50.639549
4280,Abolens,5.1498313,50.6720609
4287,Lincent,5.0318166,50.711613
4300,Bettincourt,5.235361,50.7099793
4317,Aineffe,5.256235,50.6229561
4340,Awans,5.4620018,50.6669712
4342,Hognoul,5.4556394,50.6808099
4347,Fexhe-Le-Haut-Clocher,5.3985197,50.6660818
4350,Lamine,5.333978,50.689076
4351,Hodeige,5.3426579,50.6960127
4357,Donceel,5.3199408,50.6478971
4360,Bergilers,5.3277139,50.7145424
4367,Crisnée,5.397318,50.715885
4400,Awirs,5.409295,50.5985223
4420,Montegnée,5.5190161,50.64257
4430,Ans,5.5190612,50.6624326
4431,Loncin,5.502732,50.665153
4432,Alleur,5.5129926,50.6742549
4450,Juprelle,5.5290689,50.7106926
4451,Voroux-Lez-Liers,5.552484,50.687631
4452,Paifve,5.5241784,50.7280141
4453,Villers-Saint-Siméon,5.5434045,50.7097826
4458,Fexhe-Slins,5.5714611,50.7219179
4460,Bierset,5.4512607,50.6547149
4470,Saint-Georges-Sur-Meuse,5.3579041,50.6000686
4480,Clermont-Sous-Huy,5.3922,50.569046
4500,Ben-Ahin,5.1773498,50.5033196
4520,Antheit,5.2358517,50.5512026
4530,Fize-Fontaine,5.2835083,50.5849842
4537,Bodegnée,5.3041269,50.5857931
4540,Amay,5.3240992,50.5497761
4550,Nandrin,5.4190411,50.506355
4557,Abée,5.3564571,50.4735257
4560,Bois-Et-Borsu,5.3302671,50.3946271
4570,Marchin,5.2263372,50.4802051
4577,Modave,5.3017936,50.4416137
4590,Ellemelle,5.442913,50.4664238
4600,Lanaye,5.6944381,50.7806558
4601,Argenteau,5.686015,50.6957645
4602,Cheratte,5.670164,50.682809
4606,Saint-André,5.7536486,50.6953487
4607,Berneau,5.731253,50.7423427
4608,Neufchâteau,5.7764464,50.7195828
4610,Bellaire,5.6654685,50.6447087
4620,Fléron,5.6832219,50.6168354
4621,Retinne,5.6978166,50.6302993
4623,Magnée,5.6811009,50.6028765
4624,Romsée,5.6655488,50.6068155
4630,Ayeneux,5.7147473,50.6087645
4631,Evegnée,5.7060994,50.6418082
4632,Cérexhe-Heuseux,5.7262388,50.6508837
4633,Melen,5.7370469,50.6460841
4650,Chaineux,5.8342711,50.6319367
4651,Battice,5.8194813,50.6482697
4652,Xhendelesse,5.7726472,50.6037018
4653,Bolland,5.7594413,50.6614055
4654,Charneux,5.8048204,50.669117
4670,Blégny,5.7252372,50.6727185
4671,Barchon,5.6969122,50.6682189
4672,Saint-Remy,5.700802,50.6958409
4680,Hermée,5.6186068,50.7087526
4681,Hermalle-Sous-Argenteau,5.6808711,50.710544
4682,Heure-Le-Romain,5.6295554,50.7316969
4683,Vivegnis,5.6527071,50.697932
4684,Haccourt,5.6667674,50.7339784
4690,Bassenge,5.6094772,50.7583596
4700,Eupen,6.031452,50.6306134
4701,Kettenis,6.0458005,50.6461317
4710,Lontzen,6.0073447,50.6804233
4711,Walhorn,6.0469422,50.6750768
4720,La Calamine,6.013341,50.7154957
4721,Neu-Moresnet,6.0240702,50.7199902
4728,Hergenrath,6.0316891,50.7091279
4730,Hauset,6.0708402,50.7080172
4731,Eynatten,6.081697,50.6935863
4750,Butgenbach,6.2053573,50.4267259
4760,Bullange,6.257827,50.4075533
4761,Rocherath,6.3009381,50.4344078
4770,Amblève,6.1705559,50.3543055
4771,Heppenbach,6.218691,50.3631661
4780,Recht,6.0431296,50.3349273
4782,Schoenberg,6.2642498,50.2888095
4783,Lommersweiler,6.1651484,50.2389236
4784,Crombach,6.0680547,50.2591318
4790,Burg-Reuland,6.121679358,50.17478087
4791,Thommen,6.0743425,50.2190586
4800,Ensival,5.843182,50.582172
4801,Stembert,5.8952801,50.593109
4802,Heusy,5.867539,50.57804
4820,Dison,5.854735,50.611374
4821,Andrimont,5.8901888,50.4386821
4830,Limbourg,5.9402987,50.6122761
4831,Bilstain,5.9212234,50.623535
4834,Goé,5.9562188,50.6086202
4837,Baelen,5.9715011,50.6311898
4840,Welkenraedt,5.9723396,50.6627086
4841,Henri-Chapelle,5.9318018,50.6768234
4845,Jalhay,5.9647526,50.5592528
4850,Montzen,5.9620321,50.7075126
4851,Gemmenich,5.9967631,50.7463908
4852,Hombourg,5.9207511,50.723243
4860,Cornesse,5.7910525,50.5747936
4861,Soiron,5.7906072,50.5921673
4870,Forêt,5.7002354,50.583997
4877,Olne,5.7479948,50.5901199
4880,Aubel,5.8585553,50.7041498
4890,Clermont,5.883668,50.6589677
4900,Spa,5.8626233,50.4920838
4910,La Reid,5.7905664,50.4894593
4920,Aywaille,5.6742167,50.4734827
4950,Faymonville,6.1407071,50.4054037
4960,Bevercé,6.0391879,50.4415348
4970,Francorchamps,5.952833,50.4531568
4980,Fosse,5.8378154,50.3388474
4983,Basse-Bodeux,5.826789,50.3579736
4987,Chevron,5.7299282,50.3819564
4990,Arbrefontaine,5.8353999,50.3012606
5000,Beez,4.9219558,50.4687313
5001,Belgrade,4.822295852,50.46923485
5002,Saint-Servais,4.835126618,50.48141855
5003,Saint-Marc,4.846958713,50.4948666
5004,Bouge,4.891664451,50.47887385
5020,Champion,4.903511212,50.49862565
5021,Boninne,4.929190352,50.49239555
5022,Cognelée,4.912729384,50.5171876
5024,Gelbressée,4.957828727,50.5113799
5030,Beuzet,4.7481633,50.5329777
5031,Grand-Leez,4.760959338,50.57820735
5032,Bossière,4.691994607,50.52340745
5060,Arsimont,4.6388177,50.4273479
5070,Aisemont,4.6513189,50.4048557
5080,Emines,4.827956079,50.5157255
5081,Bovesse,4.778702219,50.51440005
5100,Dave,4.904300428,50.4110871
5101,Erpent,4.909451533,50.4474046
5140,Boignée,4.6119938,50.5018413
5150,Floreffe,4.758878,50.4348064
5170,Arbre,4.820627,50.365529
5190,Balâtre,4.6382422,50.4983123
5300,Andenne,5.1043923,50.4900943
5310,Aische-En-Refail,4.8359955,50.5988682
5330,Assesse,5.0233625,50.3704203
5332,Crupet,4.9581149,50.3468626
5333,Sorinne-La-Longue,5.0294375,50.3896858
5334,Florée,5.0704373,50.3730757
5336,Courrière,4.9845433,50.378301
5340,Faulx-Les-Tombes,5.0191438,50.4272928
5350,Evelette,5.171436,50.4135772
5351,Haillot,5.1491871,50.4405961
5353,Goesnes,5.2217845,50.440101
5352,Ohey,5.1333,50.4333
5354,Jallet,5.1821601,50.4432621
5360,Hamois,5.1594475,50.3408694
5361,Mohiville,5.1923275,50.3176664
5362,Achet,5.1751963,50.3334777
5363,Emptinne,5.1212547,50.3253905
5364,Schaltin,5.1237159,50.3579006
5370,Barvaux-Condroz,5.2607234,50.3291239
5372,Méan,5.333856,50.3619241
5374,Maffe,5.3125869,50.3533462
5376,Miécret,5.24941,50.365689
5377,Baillonville,5.338213,50.288759
5380,Bierwart,5.0360917,50.5580545
5500,Anseremme,4.907923,50.23791
5501,Lisogne,4.9715412,50.2814293
5502,Thynes,4.9882689,50.2798224
5503,Sorinnes,4.982409,50.260159
5504,Foy-Notre-Dame,4.9897127,50.2471757
5520,Anthée,4.7604034,50.2395304
5521,Serville,4.7806526,50.2500754
5522,Falaen,4.793357,50.2782156
5523,Sommière,4.8454743,50.274944
5524,Gerin,4.8158102,50.2452911
5530,Dorinne,4.97325,50.3173377
5537,Anhée,4.8796936,50.310778
5540,Hastière,4.822554187,50.1973562
5541,Hastière-Par-Delà,4.8294854,50.2150767
5542,Blaimont,4.8352693,50.192216
5543,Heer,4.831747,50.161698
5544,Agimont,4.7942801,50.16421
5550,Alle,4.9726784,49.8421207
5555,Baillamont,5.0267634,49.8994469
5560,Ciergnon,5.0899109,50.1666464
5561,Celles,5.0058339,50.2312617
5562,Custinne,5.0484175,50.2117661
5563,Hour,5.0372408,50.1613066
5564,Wanlin,5.061512,50.1593381
5570,Baronville,4.9468551,50.1262206
5571,Wiesme,4.9767431,50.1487792
5572,Focant,5.0408552,50.1314538
5573,Martouzin-Neuville,5.003949,50.1176141
5574,Pondrôme,5.008842,50.099609
5575,Bourseigne-Neuve,4.855026,50.0250695
5576,Froidfontaine,5.000634,50.0604028
5580,Ave-Et-Auffe,5.153085776,50.11195305
5590,Achêne,5.0458772,50.2668644
5600,Fagnolle,4.5703749,50.1050216
5620,Corenne,4.6792792,50.2519501
5621,Hanzinelle,4.5607099,50.2949873
5630,Cerfontaine,4.4125932,50.1687764
5640,Biesme,4.6073303,50.3346461
5641,Furnaux,4.7055271,50.3080016
5644,Ermeton-Sur-Biert,4.7197934,50.2975439
5646,Stave,4.6590441,50.2828212
5650,Castillon,4.3528279,50.2472813
5651,Berzée,4.4012206,50.2892396
5660,Aublain,4.4090395,50.0672297
5670,Dourbes,4.59145,50.091356
5680,Doische,4.7458219,50.1357152
6000,Charleroi,4.449165,50.41571025
6001,Marcinelle,4.4442531,50.3977245
6010,Couillet,4.468631,50.391219
6020,Dampremy,4.4322464,50.4186181
6030,Goutroux,4.361194615,50.41684425
6031,Monceau-Sur-Sambre,4.382402,50.4170168
6032,Mont-Sur-Marchienne,4.4046365,50.3902046
6040,Jumet,4.436023275,50.44466065
6041,Gosselies,4.4301757,50.4653846
6042,Lodelinsart,4.4489421,50.431853
6043,Ransart,4.481573078,50.45615655
6044,Roux,4.390775827,50.4415002
6060,Gilly,4.485649013,50.4269705
6061,Montignies-Sur-Sambre,4.472923486,50.4109216
6110,Montigny-Le-Tilleul,4.360231481,50.36907205
6111,Landelies,4.3496404,50.377822
6120,Cour-Sur-Heure,4.3868963,50.2974701
6140,Fontaine-L'evêque,4.323963793,50.41122466
6141,Forchies-La-Marche,4.3198191,50.4383794
6142,Leernes,4.3307851,50.3974398
6150,Anderlues,4.2696102,50.4079969
6180,Courcelles,4.3763406,50.4601576
6181,Gouy-Lez-Piéton,4.3287132,50.4875628
6182,Souvret,4.350827,50.450999
6183,Trazegnies,4.3317415,50.4665295
6200,Bouffioulx,4.5151961,50.390213
6210,Frasnes-Lez-Gosselies,4.4501525,50.5376477
6211,Mellet,4.4782006,50.50462075
6220,Fleurus,4.544654533,50.47194905
6221,Saint-Amand,4.531923804,50.5111679
6222,Brye,4.561356496,50.53007005
6223,Wagnelée,4.52731102,50.52262195
6224,Wanfercée-Baulet,4.581627406,50.47584335
6230,Buzet,4.371309718,50.53893345
6238,Liberchies,4.424383094,50.5152429
6240,Farciennes,4.553041,50.4273228
6250,Aiseau,4.5870152,50.4111232
6280,Acoz,4.5323568,50.3588065
6440,Boussu-Lez-Walcourt,4.3767743,50.2262753
6441,Erpion,4.3512321,50.2118893
6460,Bailièvre,4.238617,50.069276
6461,Virelles,4.3329805,50.0648008
6462,Vaulx-Lez-Chimay,4.363579,50.061113
6463,Lompret,4.3790041,50.0642146
6464,Baileux,4.3755329,50.0298544
6470,Grandrieu,4.1714631,50.200517
6500,Barbençon,4.2859259,50.2206905
6511,Strée,4.2980462,50.2766332
6530,Leers-Et-Fosteau,4.244767,50.3041589
6531,Biesme-Sous-Thuin,4.3079897,50.320724
6532,Ragnies,4.2837674,50.3081977
6533,Biercée,4.2591396,50.3250862
6534,Gozée,4.3515595,50.3332279
6536,Donstiennes,4.3119991,50.2854167
6540,Lobbes,4.2654874,50.3460194
6542,Sars-La-Buissière,4.209803,50.3352549
6543,Bienne-Lez-Happart,4.2155807,50.3512087
6560,Bersillies-L'abbaye,4.1520931,50.2631919
6567,Fontaine-Valmont,4.2137302,50.3208131
6590,Momignies,4.1649981,50.0286317
6591,Macon,4.2096331,50.052122
6592,Monceau-Imbrechies,4.224118,50.036452
6593,Macquenoise,4.1802891,49.9755399
6594,Beauwelz,4.156972,50.015365
6596,Forge-Philippe,4.2520681,49.96543
6600,Bastogne,5.7153203,50.0009951
6630,Martelange,5.7376366,49.8313323
6637,Fauvillers,5.665031,49.8509306
6640,Hompré,5.6866728,49.9437838
6642,Juseret,5.5493342,49.8805193
6660,Houffalize,5.7886928,50.1323761
6661,Mont,5.7909538,50.5341607
6662,Tavigny,5.837773,50.1081487
6663,Mabompré,5.7384527,50.098929
6666,Wibrin,5.7156009,50.1661182
6670,Gouvy,5.9549305,50.1907895
6671,Bovigny,5.9182421,50.2244199
6672,Beho,5.9972692,50.220365
6673,Cherain,5.8646609,50.1806741
6674,Montleban,5.8288862,50.1876021
6680,Amberloup,5.5272931,50.0292955
6681,Lavacherie,5.5136455,50.052317
6686,Flamierge,5.6038758,50.0333519
6687,Bertogne,5.6675577,50.0842908
6688,Longchamps,5.6892466,50.0535428
6690,Bihain,5.8082072,50.2390245
6692,Petit-Thier,5.9672766,50.3074461
6698,Grand-Halleux,5.9072517,50.3262753
6700,Arlon,5.811919,49.6827625
6704,Guirsch,5.853381,49.7193575
6706,Autelbas,5.8675666,49.6499559
6717,Attert,5.7872217,49.7514982
6720,Habay,5.593251433,49.73558035
6721,Anlier,5.620414,49.772082
6723,Habay-La-Vieille,5.6225107,49.7228424
6724,Houdemont,5.5843337,49.7189016
6730,Bellefontaine,5.4979103,49.6649541
6740,Etalle,5.5982415,49.6729527
6741,Vance,5.6698138,49.6701655
6742,Chantemelle,5.6551334,49.6535106
6743,Buzenol,5.5942184,49.6478969
6747,Châtillon,5.6983633,49.6255848
6750,Musson,5.705881,49.5580794
6760,Bleid,5.6272894,49.5680419
6761,Latour,5.5704642,49.5581925
6762,Saint-Mard,5.5284511,49.5577562
6767,Dampicourt,5.4979579,49.5553011
6769,Gérouville,5.4287902,49.6184295
6780,Hondelange,5.8350151,49.6351714
6781,Sélange,5.848409,49.6081105
6782,Habergy,5.7608307,49.6153377
6790,Aubange,5.804352,49.5675296
6791,Athus,5.8317661,49.5642065
6792,Halanzy,5.7422467,49.5590364
6800,Bras,5.3877654,49.9760182
6810,Chiny,5.3394252,49.738581
6811,Les Bulles,5.4263273,49.7031011
6812,Suxy,5.4005563,49.7626877
6813,Termes,5.4579753,49.7071328
6820,Florenville,5.3100518,49.6993182
6821,Lacuisine,5.318262,49.7170106
6823,Villers-Devant-Orval,5.331466,49.6185771
6824,Chassepierre,5.2621817,49.7076905
6830,Bouillon,5.0672528,49.7949836
6831,Noirfontaine,5.412251,50.6175774
6832,Sensenruth,5.0738804,49.8254037
6833,Ucimont,5.0573896,49.8314004
6834,Bellevaux,6.0129575,50.3912772
6836,Dohan,5.1418578,49.7973741
6838,Corbion,5.0065337,49.7976297
6840,Grandvoir,5.3717959,49.8576034
6850,Carlsbourg,5.0830529,49.8947611
6851,Nollevaux,5.1220764,49.8710591
6852,Maissin,5.1805775,49.9651106
6853,Framont,5.1601932,49.9185629
6856,Fays-Les-Veneurs,5.1607144,49.8662058
6860,Assenois,5.4625426,49.8029977
6870,Arville,5.3166577,50.0323986
6880,Auby-Sur-Semois,5.1823728,49.8157173
6887,Herbeumont,5.2377736,49.7815364
6890,Anloy,5.2215609,49.9499043
6900,Aye,5.2931158,50.2232964
6920,Sohier,5.0702515,50.0685885
6921,Chanly,5.1559991,50.0786533
6922,Halma,5.1374206,50.0754135
6924,Lomprez,5.092143,50.0762474
6927,Bure,5.261162,50.0885262
6929,Daverdisse,5.1184644,50.0217646
6940,Durbuy,5.456248,50.3524116
6941,Bende,5.4142387,50.4176261
6950,Harsin,5.3475606,50.173788
6951,Bande,5.4154822,50.1665822
6952,Grune,5.3828952,50.1549918
6953,Ambly,5.3142288,50.1441815
6960,Dochamps,5.6230297,50.234199
6970,Tenneville,5.5242133,50.091248
6971,Champlon,5.5034047,50.1077503
6972,Erneuville,5.5507905,50.1137831
6980,Beausaint,5.5532565,50.170322
6982,Samrée,5.6394828,50.209256
6983,Ortho,5.6138065,50.1249111
6984,Hives,5.5783344,50.1506704
6986,Halleux,5.5020384,50.1717133
6987,Beffe,5.5230608,50.245425
6990,Fronville,5.4221284,50.2943293
6997,Amonines,5.5571509,50.2655197
7000,Mons,3.951958,50.4549568
7011,Ghlin,3.903746,50.4760502
7012,Flénu,3.8878381,50.4367571
7020,Maisières,3.962763,50.4901522
7021,Havre,4.0453329,50.4643434
7022,Harmignies,4.0177899,50.4076446
7024,Ciply,3.9438349,50.4193042
7030,Saint-Symphorien,4.012574,50.4366253
7031,Villers-Saint-Ghislain,4.0389071,50.4312421
7032,Spiennes,3.9868957,50.4254505
7033,Cuesmes,3.9206652,50.436171
7034,Obourg,4.0062232,50.4760289
7040,Asquillies,3.9570563,50.4020009
7041,Givry,4.0293435,50.3795142
7050,Erbaut,3.884409,50.53309
7060,Horrues,4.0413076,50.6093445
7061,Casteau,4.0031319,50.5130195
7062,Naast,4.1011662,50.5536883
7063,Chaussée-Notre-Dame-Louvignies,3.9979808,50.5921606
7070,Gottignies,4.0622054,50.4971875
7080,Eugies,3.8883703,50.3906692
7090,Braine-Le-Comte,4.1425138,50.6123481
7100,Haine-Saint-Paul,4.1883094,50.454942
7110,Boussoit,4.081995,50.4588091
7120,Croix-Lez-Rouveroy,4.0758701,50.3609408
7130,Battignies,4.1685575,50.4165125
7131,Waudrez,4.150981,50.4137808
7133,Buvrinnes,4.2055425,50.3897538
7134,Epinois,4.2093685,50.4049792
7140,Morlanwelz,4.2523562,50.4509843
7141,Carnières,4.2542126,50.443039
7160,Chapelle-Lez-Herlaimont,4.2804202,50.4713265
7170,Bellecourt,4.254013,50.4843145
7180,Seneffe,4.266460924,50.52505545
7181,Arquennes,4.28751482,50.5640405
7190,Ecaussinnes,4.1752492,50.5696129
7191,Ecaussinnes-Lalaing,4.1785518,50.5703563
7300,Boussu,3.7960902,50.4331253
7301,Hornu,3.8276077,50.4337613
7320,Bernissart,3.6504677,50.475502
7321,Blaton,3.6611754,50.5011724
7322,Pommeroeul,3.7107354,50.4611322
7330,Saint-Ghislain,3.82147814,50.4483595
7331,Baudour,3.8327577,50.4814352
7332,Neufmaison,3.7918519,50.5304672
7333,Tertre,3.8081735,50.4673149
7334,Hautrage,3.7650049,50.4823864
7340,Colfontaine,3.8513958,50.4056635
7350,Hainin,3.7661218,50.4311514
7370,Blaugies,3.8051335,50.3729779
7380,Baisieux,3.6957835,50.387884
7382,Audregnies,3.7177788,50.3830135
7387,Angre,3.6954509,50.366983
7390,Quaregnon,3.8636971,50.4421804
7500,Ere,3.3668477,50.5822217
7501,Orcq,3.3492864,50.6049549
7502,Esplechin,3.3038112,50.5743852
7503,Froyennes,3.3569842,50.6195489
7504,Froidmont,3.3287795,50.57792
7506,Willemeau,3.350025,50.573981
7520,Ramegnies-Chin,3.335337,50.651295
7521,Chercq,3.4212542,50.5885516
7522,Blandain,3.3035015,50.6249665
7530,Gaurain-Ramecroix,3.4834445,50.5924891
7531,Havinnes,3.4655917,50.6156953
7532,Beclers,3.5028761,50.6217774
7533,Thimougies,3.5102508,50.6349458
7534,Barry,3.5430623,50.5875423
7536,Vaulx,3.426172,50.589889
7538,Vezon,3.5017888,50.5683976
7540,Kain,3.3809106,50.6379097
7542,Mont-Saint-Aubert,3.4000171,50.6554352
7543,Mourcourt,3.445164,50.6530409
7548,Warchin,3.4267528,50.6096187
7600,Péruwelz,3.5908864,50.5097897
7601,Roucourt,3.5870901,50.529165
7602,Bury,3.59458,50.5426384
7603,Bon-Secours,3.607483,50.4976184
7604,Baugnies,3.552247,50.561586
7608,Wiers,3.533035,50.508665
7610,Rumes,3.3039251,50.5557678
7611,La Glanerie,3.3010202,50.5298416
7618,Taintignies,3.3416855,50.5502028
7620,Bléharies,3.4155171,50.5131151
7621,Lesdain,3.388096329,50.520291
7622,Laplaigne,3.441858763,50.52296155
7623,Rongy,3.381563203,50.50665205
7624,Howardries,3.354190039,50.5170287
7640,Antoing,3.4513116,50.565911
7641,Bruyelle,3.426992,50.557403
7642,Calonne,3.4371661,50.578325
7643,Fontenoy,3.473373,50.567887
7700,Luingne,3.2344942,50.7386186
7711,Dottignies,3.3037301,50.7273981
7712,Herseaux,3.2342044,50.7227127
7730,Bailleul,3.3176015,50.6689214
7740,Pecq,3.3407492,50.685616
7742,Hérinnes-Lez-Pecq,3.3623581,50.7008798
7743,Esquelmes,3.347779,50.665077
7750,Amougies,3.5066795,50.743719
7760,Celles,3.4571664,50.7125435
7780,Comines,2.998666,50.768736
7781,Houthem,2.9640553,50.7868243
7782,Ploegsteert,2.8803139,50.7262204
7783,Bizet,2.88999,50.7060943
7784,Bas-Warneton,2.9625206,50.7588153
7800,Ath,3.79267935,50.6395045
7801,Irchonwelz,3.7536768,50.6201619
7802,Ormeignies,3.7516336,50.5947224
7803,Bouvignies,3.7677307,50.6477056
7804,Ostiches,3.7584252,50.6788509
7810,Maffle,3.8060162,50.615068
7811,Arbre,3.8148309,50.6103517
7812,Houtaing,3.67998,50.6397485
7822,Ghislenghien,3.875818,50.6566864
7823,Gibecq,3.8878195,50.637673
7830,Bassilly,3.9360497,50.6724203
7850,Enghien,4.0406912,50.6927553
7860,Lessines,3.8301131,50.7123036
7861,Papignies,3.819132,50.6861533
7862,Ogy,3.780225,50.7208405
7863,Ghoy,3.8094385,50.7283427
7864,Deux-Acren,3.8522036,50.7307336
7866,Bois-De-Lessines,3.8856306,50.6953023
7870,Bauffe,3.8537045,50.5701441
7880,Flobecq,3.7378707,50.7371675
7890,Ellezelles,3.6802062,50.7338701
7900,Grandmetz,3.6322713,50.6220544
7901,Thieulain,3.6085857,50.6179826
7903,Blicquy,3.6857513,50.5878005
7904,Pipaix,3.575887,50.582865
7906,Gallaix,3.5748349,50.6060715
7910,Anvaing,3.5617225,50.6817661
7911,Buissenal,3.6551307,50.6648633
7912,Dergneau,3.5666,50.712579
7940,Brugelette,3.8546563,50.5954253
7941,Attre,3.8410951,50.6102428
7942,Mévergnies-Lez-Lens,3.8507081,50.6044689
7943,Gages,3.8910777,50.6068018
7950,Chièvres,3.810128,50.587693
7951,Tongre-Notre-Dame,3.7748043,50.581313
7970,Beloeil,3.7361279,50.5479197
7971,Basècles,3.6472042,50.5252131
7972,Aubechies,3.6769173,50.573932
7973,Grandglise,3.6966742,50.5044413
8000,Brugge,3.2073611,51.2147083
8020,Hertsberge,3.261234955,51.10996785
8200,Sint-Andries,3.175005415,51.18830895
8210,Loppem,3.1955523,51.1557488
8211,Aartrijke,3.091326555,51.1180002
8300,Knokke,3.323373861,51.34942965
8301,Ramskapelle,3.2505004,51.3126954
8310,Assebroek,3.25707854,51.1933202
8340,Damme,3.292091113,51.2553021
8370,Blankenberge,3.129757804,51.31651475
8377,Houtave,3.107176808,51.2388018
8380,Dudzele,3.2292277,51.2747463
8400,Oostende,2.9203275,51.2303177
8420,De Haan,3.0049248,51.2415107
8421,Vlissegem,3.063559819,51.2641695
8430,Middelkerke,2.806340123,51.18331695
8431,Wilskerke,2.8401373,51.1809498
8432,Leffinge,2.8776766,51.1746761
8433,Mannekensvere,2.8183418,51.1258003
8434,Lombardsijde,2.754986417,51.15402425
8450,Bredene,2.972576947,51.23890495
8460,Ettelgem,3.038450483,51.19765475
8470,Gistel,2.967081095,51.1582502
8480,Bekegem,3.05823224,51.14886485
8490,Jabbeke,3.090295389,51.1846386
8500,Kortrijk,3.27841539,50.81788085
8501,Bissegem,3.2284723,50.8228226
8510,Bellegem,3.2800137,50.7781502
8511,Aalbeke,3.218604632,50.77745545
8520,Kuurne,3.273632215,50.86005145
8530,Harelbeke,3.3425511,50.8293249
8531,Bavikhove,3.312604484,50.8790473
8540,Deerlijk,3.362279023,50.83878495
8550,Zwevegem,3.341906743,50.80406995
8551,Heestert,3.4120184,50.7821543
8552,Moen,3.382526324,50.775415
8553,Otegem,3.424549937,50.80927585
8554,Sint-Denijs,3.349745322,50.76440175
8560,Gullegem,3.202615488,50.84493445
8570,Anzegem,3.463734552,50.844003
8572,Kaster,3.497609,50.8121917
8573,Tiegem,3.469773854,50.8130531
8580,Avelgem,3.446898531,50.7754997
8581,Kerkhove,3.505897166,50.8008418
8582,Outrijve,3.425733181,50.75868715
8583,Bossuit,3.40808193,50.74804505
8587,Espierres,3.346526465,50.72568025
8600,Beerst,2.873227743,51.05367055
8610,Handzame,2.996075152,51.0321939
8620,Nieuwpoort,2.72839865,51.14416005
8630,Avekapelle,2.745771071,51.0631103
8640,Oostvleteren,2.749222447,50.92313355
8647,Lo,2.760780072,50.9931276
8650,Houthulst,2.943811051,50.97407785
8660,Adinkerke,2.589602838,51.06926315
8670,Koksijde,2.635342602,51.1091101
8680,Bovekerke,2.963341473,51.05621365
8690,Alveringem,2.72256881,51.01509585
8691,Gijverinkhove,2.6727552,50.9761749
8700,Aarsele,3.41398842,50.9972412
8710,Ooigem,3.330496414,50.8949817
8720,Dentergem,3.402293717,50.966125
8730,Beernem,3.31447326,51.12774395
8740,Egem,3.254063484,51.0209559
8750,Wingene,3.284768308,51.06808895
8755,Ruiselede,3.37894958,51.062755
8760,Meulebeke,3.285960576,50.9484788
8770,Ingelmunster,3.261718974,50.92196635
8780,Oostrozebeke,3.346820637,50.93434535
8790,Waregem,3.42573804,50.87620025
8791,Beveren,3.342747236,50.871701
8792,Desselgem,3.366911956,50.88302825
8793,Sint-Eloois-Vijve,3.4036062,50.9057236
8800,Beveren,3.14416,50.9687312
8810,Lichtervelde,3.142271772,51.03033065
8820,Torhout,3.091307205,51.0585915
8830,Gits,3.110328541,50.9975916
8840,Oostnieuwkerke,3.064158605,50.94159445
8850,Ardooie,3.204593667,50.97076545
8851,Koolskamp,3.201614284,51.0075272
8860,Lendelede,3.232013466,50.8850661
8870,Emelgem,3.221285235,50.9336597
8880,Ledegem,3.117659878,50.86898195
8890,Dadizele,3.105666576,50.84693275
8900,Brielen,2.8475388,50.8689046
8902,Hollebeke,2.9383694,50.8056486
8904,Boezinge,2.862448252,50.89329445
8906,Elverdinge,2.808607209,50.88120105
8908,Vlamertinge,2.814659656,50.84722495
8920,Bikschote,2.863108836,50.92504495
8930,Lauwe,3.19389788,50.78879055
8940,Geluwe,3.06890092,50.826939
8950,Heuvelland,2.845745911,50.76764855
8951,Dranouter,2.7832991,50.7662832
8952,Wulvergem,2.840869239,50.7675035
8953,Wijtschate,2.912619288,50.7832683
8954,Westouter,2.740961051,50.8003371
8956,Kemmel,2.838367529,50.7952131
8957,Messines,2.900121423,50.7596526
8958,Loker,2.779730973,50.78372855
8970,Poperinge,2.722259264,50.84362245
8972,Krombeke,2.672906377,50.9045753
8978,Watou,2.644911715,50.84518645
8980,Beselare,3.029349428,50.85048855
9000,Gent,3.7141549,51.0397129
9030,Mariakerke,3.67812103,51.0731177
9031,Drongen,3.639516804,51.0528944
9032,Wondelgem,3.703461275,51.09349535
9040,Sint-Amandsberg,3.7488657,51.061875
9041,Oostakker,3.7644128,51.1001986
9042,Desteldonk,3.7836111,51.1221778
9050,Gentbrugge,3.7588813,51.0447236
9051,Afsnee,3.657541586,51.0299989
9052,Zwijnaarde,3.702179093,51.00092235
9060,Zelzate,3.8105002,51.2000036
9070,Destelbergen,3.7978887,51.0556204
9080,Beervelde,3.8792625,51.0802144
9090,Gontrode,3.7976423,50.9842505
9100,Nieuwkerken-Waas,4.1780279,51.1933908
9111,Belsele,4.091775019,51.1570236
9112,Sinaai-Waas,3.9795579,51.1866966
9120,Haasdonk,4.2383861,51.1806482
9130,Doel,4.245637447,51.3181461
9140,Elversele,4.145756884,51.12017065
9150,Bazel,4.287384251,51.14685855
9160,Daknam,3.980854786,51.12798595
9170,De Klinge,4.0898144,51.2564526
9180,Moerbeke-Waas,3.9446436,51.1742698
9185,Wachtebeke,3.8574284,51.1701927
9190,Kemzeke,4.0771037,51.2065228
9200,Appels,4.056227545,51.02983825
9220,Hamme,4.120280781,51.0881618
9230,Massemen,3.8735741,50.9809343
9240,Zele,4.0385864,51.0683621
9250,Waasmunster,4.0842158,51.1097147
9255,Buggenhout,4.192804319,51.0113077
9260,Schellebelle,3.928141226,51.0102518
9270,Kalken,3.918568,51.0370133
9280,Denderbelle,4.095443287,51.0011357
9290,Berlare,4.01134703,51.0301606
9300,Aalst,4.03964242,50.9429755
9308,Gijzegem,4.041368472,50.9831967
9310,Baardegem,4.140006408,50.9559778
9320,Erembodegem,4.057361005,50.9160962
9340,Impe,3.9521618,50.9605364
9400,Appelterre-Eichem,3.967326612,50.819114
9401,Pollare,3.9969451,50.8168641
9402,Meerbeke,4.045850172,50.81972985
9403,Neigem,4.0606636,50.803005
9404,Aspelare,3.9584406,50.8421637
9406,Outer,3.997655892,50.84658595
9420,Aaigem,3.9366909,50.8894174
9450,Denderhoutem,4.00593386,50.878059
9451,Kerksken,3.979234667,50.88457295
9470,Denderleeuw,4.066546833,50.8843903
9472,Iddergem,4.044050921,50.8746795
9473,Welle,4.0448599,50.9005405
9500,Geraardsbergen,3.879789,50.7689045
9506,Grimminge,3.9525416,50.7945316
9520,Bavegem,3.86801046,50.9449691
9521,Letterhoutem,3.8812597,50.92696
9550,Herzele,3.887395383,50.88830225
9551,Ressegem,3.9109808,50.8920791
9552,Borsbeke,3.8945771,50.9047179
9570,Deftinge,3.8409061,50.7863579
9571,Hemelveerdegem,3.863878351,50.8088369
9572,Sint-Martens-Lierde,3.815784644,50.80452055
9600,Renaix,3.6020465,50.7476192
9620,Elene,3.8078492,50.8907864
9630,Beerlegem,3.719796314,50.90267645
9636,Nederzwalm-Hermelgem,3.68798941,50.8867594
9660,Brakel,3.762778,50.7979739
9661,Parike,3.799316,50.7849168
9667,Horebeke,3.6920346,50.8348628
9680,Etikhove,3.625998,50.8129246
9681,Nukerke,3.5954667,50.7965606
9688,Schorisse,3.6782376,50.8061799
9690,Berchem,3.5082669,50.7903918
9700,Bevere,3.5955691,50.8513634
9750,Huise,3.5907777,50.8988246
9770,Kruishoutem,3.540446277,50.9200896
9771,Nokere,3.5108474,50.8853618
9772,Wannegem-Lede,3.560579417,50.8902386
9790,Elsegem,3.5366137,50.8247164
9800,Astene,3.5628186,50.9845547
9810,Eke,3.6418029,50.9569377
9820,Bottelare,3.7552702,50.9635195
9830,Sint-Martens-Latem,3.630629124,51.0134462
9831,Deurle,3.611165872,51.0000909
9840,De Pinte,3.6495958,50.9924205
9850,Hansbeke,3.5345703,51.0747776
9860,Balegem,3.7896135,50.9252028
9870,Machelen,3.4858873,50.9591856
9880,Aalter,3.417680328,51.088195
9881,Bellem,3.499452566,51.0902776
9890,Baaigem,3.721942,50.9309503
9900,Eeklo,3.5665965,51.1844827
9910,Knesselare,3.412339,51.1392692
9920,Lovendegem,3.6076129,51.0956807
9921,Vinderhoute,3.6412401,51.0876396
9930,Zomergem,3.564243679,51.1195778
9931,Oostwinkel,3.5253176,51.150867
9932,Ronsele,3.5532444,51.1303816
9940,Ertvelde,3.7471789,51.1793505
9950,Waarschoot,3.6061712,51.1515304
9960,Assenede,3.756807666,51.23004155
9961,Boekhoute,3.705961499,51.2509311
9968,Bassevelde,3.6789952,51.2311917
9970,Kaprijke,3.621925137,51.228952
9971,Lembeke,3.634631213,51.19424
9980,Sint-Laureins,3.537482068,51.2330483
9981,Sint-Margriete,3.531500557,51.26767195
9982,Sint-Jan-In-Eremo,3.580094,51.2682182
9988,Waterland-Oudeman,3.5905485,51.2891181
9990,Maldegem,3.4154538,51.2263133
9991,Adegem,3.4858471,51.2035291
9992,Middelburg,3.407142556,51.25583235
